#aV2022 11 12  0  0  0.00000000     288 DD+AD WGS84 FIT  NGA
## 2235 518400.00000000   300.00000000 59895 0.0000000000000
+   32     1  2  3  4  5  6  7  8  9 10 11 12 13 14 15 16 17
+         18 19 20 21 22 23 24 25 26 27 28 29 30 31 32  0  0
+          0  0  0  0  0  0  0  0  0  0  0  0  0  0  0  0  0
+          0  0  0  0  0  0  0  0  0  0  0  0  0  0  0  0  0
+          0  0  0  0  0  0  0  0  0  0  0  0  0  0  0  0  0
++         2  2  2  2  2  2  2  2  2  2  2  2  2  2  2  2  2
++         2  2  2  2  2  2  2  2  2  2  2  2  2  2  2  0  0
++         0  0  0  0  0  0  0  0  0  0  0  0  0  0  0  0  0
++         0  0  0  0  0  0  0  0  0  0  0  0  0  0  0  0  0
++         0  0  0  0  0  0  0  0  0  0  0  0  0  0  0  0  0
%c cc cc ccc ccc cccc cccc cccc cccc ccccc ccccc ccccc ccccc
%c cc cc ccc ccc cccc cccc cccc cccc ccccc ccccc ccccc ccccc
%f  0.0000000  0.000000000  0.00000000000  0.000000000000000
%f  0.0000000  0.000000000  0.00000000000  0.000000000000000
%i    0    0    0    0      0      0      0      0         0
%i    0    0    0    0      0      0      0      0         0
/*      NGA, ST. LOUIS,MO.                                  
/*   EPHEMERIS COMPUTED FROM 2 DAYS OF DATA                 
/*   EPOCHA v8 SMOOTHER                                     
/*   G2139 IERS2010 SATIGS SATAPC                           
*  2022 11 12 17 30  0.00000000
P  1 -15854.199827  -2870.810681  20878.828103    252.840256                    
V  1  -9363.760473 -25407.578812 -10121.574409     -0.056827                    
P  2  15363.031023  -1623.848227 -20949.212898   -638.153057                    
V  2  11994.319445  25426.253288   6820.016836      0.016945                    
P  3 -19403.809417   6551.056763  16730.775209   -372.331418                    
V  3  11906.613113 -17956.880195  20789.773843     -0.023496                    
P  4 -25927.011778   -213.701488  -6010.788693    -87.622869                    
V  4  -7058.316617  -3861.898059  30472.971240      0.066192                    
P  5  14148.533447   6219.863753 -21782.421375   -104.032223                    
V  5 -15529.008823  22367.413452  -3612.928492     -0.014629                    
P  6   5422.521233  25144.548963   6516.264652    516.480517                    
V  6  -4803.054227  -6892.054594  30976.699942      0.093629                    
P  7  -9990.158056  13491.697307 -20042.329766    288.234939                    
V  7 -11220.229603 -24115.697593 -10905.692199     -0.045737                    
P  8 -25537.757689  -6334.351564  -4909.285706    -93.490239                    
V  8   6351.279610  -1724.098464 -30715.120941     -0.019181                    
P  9 -19774.553133   8769.260266 -15522.539066   -269.685763                    
V  9 -19195.516960  -4300.575228  22094.920796      0.056116                    
P 10   9501.525114 -22802.293620   9478.623023    -11.603946                    
V 10   9098.463523  -7998.867704 -29143.356981     -0.016523                    
P 11  12095.909004  22995.792199  -5597.840716    -38.702507                    
V 11   -111.554545   7561.114704  30746.885669     -0.058612                    
P 12  19735.220797  -4662.582909  16829.908593   -303.437930                    
V 12 -13285.899965  17516.588478  20212.521557     -0.045036                    
P 13  20526.663112  13363.511697 -10678.647652    423.360935                    
V 13 -13291.667125  -1577.992535 -27800.489891      0.067990                    
P 14 -11920.288180  22499.957231   7352.424098    -83.901273                    
V 14  -8331.513934   5252.662242 -29723.507008      0.050287                    
P 15  26005.851178   3893.137275  -5147.127432    -12.987971                    
V 15  -5969.927008   3342.943456 -29989.529887      0.031737                    
P 16  -9671.110306 -11838.301360 -21975.773147   -526.888396                    
V 16  18838.736147 -19681.958658   2796.236529     -0.000197                    
P 17  -6987.046888  13791.222799  22047.784185    677.293939                    
V 17 -26301.935655  -5578.880397  -4874.814354      0.033036                    
P 18   8498.980953 -15457.945044 -19811.399622    -19.474260                    
V 18  10093.225455  23079.499497 -13815.529590     -0.139793                    
P 19   5775.602514  15707.687720  20456.423398    236.455033                    
V 19 -25795.789837  -5625.655652  11220.875320      0.050533                    
P 20   5478.195042  18150.564007 -18674.134115    470.695565                    
V 20 -12651.977797  20116.499215  15600.903898     -0.030670                    
P 21 -18567.329139 -10828.433054  16685.359526    156.199023                    
V 21  -7874.753778 -18163.371562 -20590.081516     -0.008125                    
P 22  -8679.120697 -16068.292747  19769.100045    363.269722                    
V 22  23788.524404   4223.817694  14009.231222      0.070770                    
P 23  16364.166751 -20778.391110  -1391.109428     -1.049634                    
V 23   1061.933420   2960.308464 -32009.979578      0.001674                    
P 24  18216.456903   6254.853177  18125.438298     61.850786                    
V 24   9153.876079  21867.595696 -16023.406522     -0.158893                    
P 25  19548.967650 -15108.712537   9066.617772    391.930494                    
V 25  -4884.870004  11391.927296  28861.646328      0.037307                    
P 26  -1655.212581 -20087.566179 -17222.577771    235.581324                    
V 26  14238.137342 -16793.001996  18648.479856      0.011320                    
P 27 -18393.370808 -12741.048002 -14833.605020    179.485575                    
V 27  18317.683900    915.406758 -23460.931221     -0.084525                    
P 28  12833.229532  17674.665610  15784.521770    315.456428                    
V 28    463.502775  19091.136480 -22219.819039     -0.055670                    
P 29  21570.836272  -5414.185757 -14622.336994   -566.705538                    
V 29  17673.095090   5463.671050  24036.901750     -0.026922                    
P 30  -1641.117385  22723.627589 -13348.950662   -536.755553                    
V 30  -9118.708693 -14963.163095 -24439.718883      0.003123                    
P 31  -6002.050066 -25147.996475   4730.270136   -199.956996                    
V 31   5369.089403   4680.733440  31149.304647     -0.012180                    
P 32   2775.946169 -15098.213700  21819.931487   -293.969083                    
V 32  27116.762356   3668.854495  -1112.883895     -0.125456                    
EOF
